2025-313BE              
1 67482U 25313BE  26044.20090059  .00065229  00000+0  25167-2 0  9998
2 67482  97.4064 121.0310 0008439  74.8136 285.4035 15.26013904  4237
ION SCV-021             
1 67483U 25276DT  26034.18647169 -.00137880  00000+0 -12184-1 0  9992
2 67483  97.5347 109.4970 0011364 207.9438 152.1175 14.97059561  2554
STARLINK-36551          
1 67493U 26012A   26044.25002315 -.01942782  00000+0 -49683-1 0  9999
2 67493  42.9995  93.0200 0001076 294.9946 197.6484 15.42081392  5144
STARLINK-36396          
1 67494U 26012B   26043.50669403  .00091001  00000+0  15335-2 0  9998
2 67494  43.0004  98.1000 0001112 358.6780   1.4077 15.50679657  3893
STARLINK-36550          
1 67495U 26012C   26044.17864642  .00069826  00000+0  11860-2 0  9994
2 67495  43.0016  93.6684 0002737 258.5376 101.5177 15.50564110  4002
STARLINK-36534          
1 67496U 26012D   26044.25002315 -.01948121  00000+0 -42908-1 0  9998
2 67496  43.0000  92.9817 0001033 293.5784 214.3685 15.46441204  5085
STARLINK-36555          
1 67497U 26012E   26044.25002315 -.01941716  00000+0 -43297-1 0  9994
2 67497  42.9997  93.0026 0001105 295.8987 203.7356 15.46075977  5147
STARLINK-36081          
1 67498U 26012F   26044.00002315  .00100490  00000+0  17017-2 0  9993
2 67498  43.0008  94.7063 0001612 258.7969 184.6897 15.50498218  5041
STARLINK-36558          
1 67499U 26012G   26044.17790632  .00062978  00000+0  10695-2 0  9991
2 67499  42.9997  93.6601 0001386 263.4820  96.5882 15.50610271  4005
STARLINK-36557          
1 67500U 26012H   26044.25002315 -.01907650  00000+0 -44870-1 0  9996
2 67500  43.0003  92.7505 0000713 287.3747 314.2739 15.44476085  5140
STARLINK-36433          
1 67501U 26012J   26044.25002315 -.01889518  00000+0 -43851-1 0  9997
2 67501  43.0003  92.7122 0000962 281.9405 335.5919 15.44832240  5148
STARLINK-36554          
1 67502U 26012K   26044.25002315 -.00016190  00000+0 -27085-3 0  9998
2 67502  42.9999  92.9810 0001292 265.2535 242.0863 15.50565865  5089
