CCSDS_OMM_VERS = 2.0
CREATION_DATE  = 
ORIGINATOR     = 

OBJECT_NAME    = 2025-313BE
OBJECT_ID      = 2025-313BE
CENTER_NAME    = EARTH
REF_FRAME      = TEME
TIME_SYSTEM    = UTC
MEAN_ELEMENT_THEORY = SGP/SGP4

EPOCH          = 2026-02-13T04:49:17.810976
MEAN_MOTION    = 15.26013904
ECCENTRICITY   = .0008439
INCLINATION    = 97.4064
RA_OF_ASC_NODE = 121.0310
ARG_OF_PERICENTER = 74.8136
MEAN_ANOMALY   = 285.4035

EPHEMERIS_TYPE = 0
CLASSIFICATION_TYPE = U
NORAD_CAT_ID   = 67482
ELEMENT_SET_NO = 999
REV_AT_EPOCH   = 423
BSTAR          = .25166967E-2
MEAN_MOTION_DOT = .65229E-3
MEAN_MOTION_DDOT = 0

CCSDS_OMM_VERS = 2.0
CREATION_DATE  = 
ORIGINATOR     = 

OBJECT_NAME    = ION SCV-021
OBJECT_ID      = 2025-276DT
CENTER_NAME    = EARTH
REF_FRAME      = TEME
TIME_SYSTEM    = UTC
MEAN_ELEMENT_THEORY = SGP/SGP4

EPOCH          = 2026-02-03T04:28:31.154016
MEAN_MOTION    = 14.97059561
ECCENTRICITY   = .00113647
INCLINATION    = 97.5347
RA_OF_ASC_NODE = 109.4970
ARG_OF_PERICENTER = 207.9438
MEAN_ANOMALY   = 152.1175

EPHEMERIS_TYPE = 0
CLASSIFICATION_TYPE = U
NORAD_CAT_ID   = 67483
ELEMENT_SET_NO = 999
REV_AT_EPOCH   = 255
BSTAR          = -.1218394E-1
MEAN_MOTION_DOT = -.13788E-2
MEAN_MOTION_DDOT = 0

CCSDS_OMM_VERS = 2.0
CREATION_DATE  = 
ORIGINATOR     = 

OBJECT_NAME    = STARLINK-36551
OBJECT_ID      = 2026-012A
CENTER_NAME    = EARTH
REF_FRAME      = TEME
TIME_SYSTEM    = UTC
MEAN_ELEMENT_THEORY = SGP/SGP4

EPOCH          = 2026-02-13T06:00:02.000160
MEAN_MOTION    = 15.42081392
ECCENTRICITY   = .00010767
INCLINATION    = 42.9995
RA_OF_ASC_NODE = 93.0200
ARG_OF_PERICENTER = 294.9946
MEAN_ANOMALY   = 197.6484

EPHEMERIS_TYPE = 0
CLASSIFICATION_TYPE = U
NORAD_CAT_ID   = 67493
ELEMENT_SET_NO = 999
REV_AT_EPOCH   = 514
BSTAR          = -.49683462E-1
MEAN_MOTION_DOT = -.1942782E-1
MEAN_MOTION_DDOT = 0

CCSDS_OMM_VERS = 2.0
CREATION_DATE  = 
ORIGINATOR     = 

OBJECT_NAME    = STARLINK-36396
OBJECT_ID      = 2026-012B
CENTER_NAME    = EARTH
REF_FRAME      = TEME
TIME_SYSTEM    = UTC
MEAN_ELEMENT_THEORY = SGP/SGP4

EPOCH          = 2026-02-12T12:09:38.364192
MEAN_MOTION    = 15.50679657
ECCENTRICITY   = .00011125
INCLINATION    = 43.0004
RA_OF_ASC_NODE = 98.1000
ARG_OF_PERICENTER = 358.6780
MEAN_ANOMALY   = 1.4077

EPHEMERIS_TYPE = 0
CLASSIFICATION_TYPE = U
NORAD_CAT_ID   = 67494
ELEMENT_SET_NO = 999
REV_AT_EPOCH   = 389
BSTAR          = .15335285E-2
MEAN_MOTION_DOT = .91001E-3
MEAN_MOTION_DDOT = 0

CCSDS_OMM_VERS = 2.0
CREATION_DATE  = 
ORIGINATOR     = 

OBJECT_NAME    = STARLINK-36550
OBJECT_ID      = 2026-012C
CENTER_NAME    = EARTH
REF_FRAME      = TEME
TIME_SYSTEM    = UTC
MEAN_ELEMENT_THEORY = SGP/SGP4

EPOCH          = 2026-02-13T04:17:15.050688
MEAN_MOTION    = 15.50564110
ECCENTRICITY   = .00027375
INCLINATION    = 43.0016
RA_OF_ASC_NODE = 93.6684
ARG_OF_PERICENTER = 258.5376
MEAN_ANOMALY   = 101.5177

EPHEMERIS_TYPE = 0
CLASSIFICATION_TYPE = U
NORAD_CAT_ID   = 67495
ELEMENT_SET_NO = 999
REV_AT_EPOCH   = 400
BSTAR          = .11859973E-2
MEAN_MOTION_DOT = .69826E-3
MEAN_MOTION_DDOT = 0

CCSDS_OMM_VERS = 2.0
CREATION_DATE  = 
ORIGINATOR     = 

OBJECT_NAME    = STARLINK-36534
OBJECT_ID      = 2026-012D
CENTER_NAME    = EARTH
REF_FRAME      = TEME
TIME_SYSTEM    = UTC
MEAN_ELEMENT_THEORY = SGP/SGP4

EPOCH          = 2026-02-13T06:00:02.000160
MEAN_MOTION    = 15.46441204
ECCENTRICITY   = .00010338
INCLINATION    = 43.0000
RA_OF_ASC_NODE = 92.9817
ARG_OF_PERICENTER = 293.5784
MEAN_ANOMALY   = 214.3685

EPHEMERIS_TYPE = 0
CLASSIFICATION_TYPE = U
NORAD_CAT_ID   = 67496
ELEMENT_SET_NO = 999
REV_AT_EPOCH   = 508
BSTAR          = -.42908061E-1
MEAN_MOTION_DOT = -.1948121E-1
MEAN_MOTION_DDOT = 0

CCSDS_OMM_VERS = 2.0
CREATION_DATE  = 
ORIGINATOR     = 

OBJECT_NAME    = STARLINK-36555
OBJECT_ID      = 2026-012E
CENTER_NAME    = EARTH
REF_FRAME      = TEME
TIME_SYSTEM    = UTC
MEAN_ELEMENT_THEORY = SGP/SGP4

EPOCH          = 2026-02-13T06:00:02.000160
MEAN_MOTION    = 15.46075977
ECCENTRICITY   = .00011054
INCLINATION    = 42.9997
RA_OF_ASC_NODE = 93.0026
ARG_OF_PERICENTER = 295.8987
MEAN_ANOMALY   = 203.7356

EPHEMERIS_TYPE = 0
CLASSIFICATION_TYPE = U
NORAD_CAT_ID   = 67497
ELEMENT_SET_NO = 999
REV_AT_EPOCH   = 514
BSTAR          = -.43296792E-1
MEAN_MOTION_DOT = -.1941716E-1
MEAN_MOTION_DDOT = 0

CCSDS_OMM_VERS = 2.0
CREATION_DATE  = 
ORIGINATOR     = 

OBJECT_NAME    = STARLINK-36081
OBJECT_ID      = 2026-012F
CENTER_NAME    = EARTH
REF_FRAME      = TEME
TIME_SYSTEM    = UTC
MEAN_ELEMENT_THEORY = SGP/SGP4

EPOCH          = 2026-02-13T00:00:02.000160
MEAN_MOTION    = 15.50498218
ECCENTRICITY   = .00016126
INCLINATION    = 43.0008
RA_OF_ASC_NODE = 94.7063
ARG_OF_PERICENTER = 258.7969
MEAN_ANOMALY   = 184.6897

EPHEMERIS_TYPE = 0
CLASSIFICATION_TYPE = U
NORAD_CAT_ID   = 67498
ELEMENT_SET_NO = 999
REV_AT_EPOCH   = 504
BSTAR          = .17016943E-2
MEAN_MOTION_DOT = .10049E-2
MEAN_MOTION_DDOT = 0

CCSDS_OMM_VERS = 2.0
CREATION_DATE  = 
ORIGINATOR     = 

OBJECT_NAME    = STARLINK-36558
OBJECT_ID      = 2026-012G
CENTER_NAME    = EARTH
REF_FRAME      = TEME
TIME_SYSTEM    = UTC
MEAN_ELEMENT_THEORY = SGP/SGP4

EPOCH          = 2026-02-13T04:16:11.106048
MEAN_MOTION    = 15.50610271
ECCENTRICITY   = .00013869
INCLINATION    = 42.9997
RA_OF_ASC_NODE = 93.6601
ARG_OF_PERICENTER = 263.4820
MEAN_ANOMALY   = 96.5882

EPHEMERIS_TYPE = 0
CLASSIFICATION_TYPE = U
NORAD_CAT_ID   = 67499
ELEMENT_SET_NO = 999
REV_AT_EPOCH   = 400
BSTAR          = .10695059E-2
MEAN_MOTION_DOT = .62978E-3
MEAN_MOTION_DDOT = 0

CCSDS_OMM_VERS = 2.0
CREATION_DATE  = 
ORIGINATOR     = 

OBJECT_NAME    = STARLINK-36557
OBJECT_ID      = 2026-012H
CENTER_NAME    = EARTH
REF_FRAME      = TEME
TIME_SYSTEM    = UTC
MEAN_ELEMENT_THEORY = SGP/SGP4

EPOCH          = 2026-02-13T06:00:02.000160
MEAN_MOTION    = 15.44476085
ECCENTRICITY   = .00007133
INCLINATION    = 43.0003
RA_OF_ASC_NODE = 92.7505
ARG_OF_PERICENTER = 287.3747
MEAN_ANOMALY   = 314.2739

EPHEMERIS_TYPE = 0
CLASSIFICATION_TYPE = U
NORAD_CAT_ID   = 67500
ELEMENT_SET_NO = 999
REV_AT_EPOCH   = 514
BSTAR          = -.44869626E-1
MEAN_MOTION_DOT = -.190765E-1
MEAN_MOTION_DDOT = 0

CCSDS_OMM_VERS = 2.0
CREATION_DATE  = 
ORIGINATOR     = 

OBJECT_NAME    = STARLINK-36433
OBJECT_ID      = 2026-012J
CENTER_NAME    = EARTH
REF_FRAME      = TEME
TIME_SYSTEM    = UTC
MEAN_ELEMENT_THEORY = SGP/SGP4

EPOCH          = 2026-02-13T06:00:02.000160
MEAN_MOTION    = 15.44832240
ECCENTRICITY   = .0000962
INCLINATION    = 43.0003
RA_OF_ASC_NODE = 92.7122
ARG_OF_PERICENTER = 281.9405
MEAN_ANOMALY   = 335.5919

EPHEMERIS_TYPE = 0
CLASSIFICATION_TYPE = U
NORAD_CAT_ID   = 67501
ELEMENT_SET_NO = 999
REV_AT_EPOCH   = 514
BSTAR          = -.43851097E-1
MEAN_MOTION_DOT = -.1889518E-1
MEAN_MOTION_DDOT = 0

CCSDS_OMM_VERS = 2.0
CREATION_DATE  = 
ORIGINATOR     = 

OBJECT_NAME    = STARLINK-36554
OBJECT_ID      = 2026-012K
CENTER_NAME    = EARTH
REF_FRAME      = TEME
TIME_SYSTEM    = UTC
MEAN_ELEMENT_THEORY = SGP/SGP4

EPOCH          = 2026-02-13T06:00:02.000160
MEAN_MOTION    = 15.50565865
ECCENTRICITY   = .00012928
INCLINATION    = 42.9999
RA_OF_ASC_NODE = 92.9810
ARG_OF_PERICENTER = 265.2535
MEAN_ANOMALY   = 242.0863

EPHEMERIS_TYPE = 0
CLASSIFICATION_TYPE = U
NORAD_CAT_ID   = 67502
ELEMENT_SET_NO = 999
REV_AT_EPOCH   = 508
BSTAR          = -.27084503E-3
MEAN_MOTION_DOT = -.1619E-3
MEAN_MOTION_DDOT = 0

